start=new Date('2022-07-28T00:00:00.000Z').valueOf();
sats=[{"RCS_SIZE":"LARGE","MEAN_MOTION":"15.06409006","ARG_OF_PERICENTER":"72.5757","PERIOD":"95.592","TLE_LINE1":"1 47174U 20088BE  22208.68872283 -.00000487  00000-0 -13762-4 0  9993","DECAY_DATE":null,"REV_AT_EPOCH":"9273","BSTAR":"-0.00001376200000","MEAN_ELEMENT_THEORY":"SGP4","MEAN_MOTION_DOT":"-0.00000487","EPOCH":"2022-07-27T16:31:45.652512","OBJECT_ID":"2020-088BE","SITE":"AFETR","NORAD_CAT_ID":"47174","GP_ID":"208998081","ELEMENT_SET_NO":"999","REF_FRAME":"TEME","RA_OF_ASC_NODE":"111.8161","SEMIMAJOR_AXIS":"6925.321","OBJECT_NAME":"STARLINK-1891","COUNTRY_CODE":"US","OBJECT_TYPE":"PAYLOAD","CLASSIFICATION_TYPE":"U","PERIAPSIS":"546.017","FILE":"3523323","APOAPSIS":"548.355","INCLINATION":"53.0542","MEAN_ANOMALY":"287.5416","EPHEMERIS_TYPE":"0","TLE_LINE2":"2 47174  53.0542 111.8161 0001688  72.5757 287.5416 15.06409006 92734","ECCENTRICITY":"0.00016880","TIME_SYSTEM":"UTC","MEAN_MOTION_DDOT":"0.0000000000000","CENTER_NAME":"EARTH","LAUNCH_DATE":"2020-11-25"},{"SITE":"AFETR","OBJECT_ID":"2020-088BF","MEAN_MOTION_DOT":"0.00000682","EPOCH":"2022-07-27T19:40:11.128800","REV_AT_EPOCH":"9303","MEAN_ELEMENT_THEORY":"SGP4","BSTAR":"0.00006465500000","DECAY_DATE":null,"RA_OF_ASC_NODE":"91.2445","SEMIMAJOR_AXIS":"6925.346","REF_FRAME":"TEME","ELEMENT_SET_NO":"999","NORAD_CAT_ID":"47175","GP_ID":"208975164","RCS_SIZE":"LARGE","MEAN_MOTION":"15.06400807","ARG_OF_PERICENTER":"71.1436","TLE_LINE1":"1 47175U 20088BF  22208.81957325  .00000682  00000-0  64655-4 0  9992","PERIOD":"95.592","TIME_SYSTEM":"UTC","MEAN_MOTION_DDOT":"0.0000000000000","TLE_LINE2":"2 47175  53.0561  91.2445 0001614  71.1436 288.9728 15.06400807 93035","ECCENTRICITY":"0.00016140","EPHEMERIS_TYPE":"0","MEAN_ANOMALY":"288.9728","LAUNCH_DATE":"2020-11-25","CENTER_NAME":"EARTH","COUNTRY_CODE":"US","CLASSIFICATION_TYPE":"U","OBJECT_TYPE":"PAYLOAD","PERIAPSIS":"546.093","OBJECT_NAME":"STARLINK-1895","INCLINATION":"53.0561","APOAPSIS":"548.329","FILE":"3523235"},{"MEAN_MOTION":"15.06421514","RCS_SIZE":"LARGE","ARG_OF_PERICENTER":"70.6451","TLE_LINE1":"1 47177U 20088BH  22208.40582534 -.00003645  00000-0 -22579-3 0  9997","PERIOD":"95.591","SITE":"AFETR","MEAN_MOTION_DOT":"-0.00003645","EPOCH":"2022-07-27T09:44:23.309376","OBJECT_ID":"2020-088BH","MEAN_ELEMENT_THEORY":"SGP4","BSTAR":"-0.00022579000000","REV_AT_EPOCH":"9283","DECAY_DATE":null,"SEMIMAJOR_AXIS":"6925.283","RA_OF_ASC_NODE":"103.1037","REF_FRAME":"TEME","ELEMENT_SET_NO":"999","NORAD_CAT_ID":"47177","GP_ID":"208967555","PERIAPSIS":"546.093","OBJECT_TYPE":"PAYLOAD","COUNTRY_CODE":"US","CLASSIFICATION_TYPE":"U","OBJECT_NAME":"STARLINK-1907","INCLINATION":"53.0555","APOAPSIS":"548.202","FILE":"3523109","MEAN_MOTION_DDOT":"0.0000000000000","TIME_SYSTEM":"UTC","ECCENTRICITY":"0.00015230","TLE_LINE2":"2 47177  53.0555 103.1037 0001523  70.6451 289.4702 15.06421514 92833","EPHEMERIS_TYPE":"0","MEAN_ANOMALY":"289.4702","LAUNCH_DATE":"2020-11-25","CENTER_NAME":"EARTH"},{"PERIOD":"95.591","TLE_LINE1":"1 47178U 20088BJ  22208.85091745  .00007150  00000-0  49825-3 0  9992","ARG_OF_PERICENTER":"84.5432","RCS_SIZE":"LARGE","MEAN_MOTION":"15.06410156","NORAD_CAT_ID":"47178","GP_ID":"208998839","REF_FRAME":"TEME","ELEMENT_SET_NO":"999","SEMIMAJOR_AXIS":"6925.317","RA_OF_ASC_NODE":"111.0969","DECAY_DATE":null,"MEAN_ELEMENT_THEORY":"SGP4","BSTAR":"0.00049825000000","REV_AT_EPOCH":"9275","MEAN_MOTION_DOT":"0.00007150","EPOCH":"2022-07-27T20:25:19.267680","OBJECT_ID":"2020-088BJ","SITE":"AFETR","FILE":"3523323","APOAPSIS":"548.266","INCLINATION":"53.0548","OBJECT_NAME":"STARLINK-1912","PERIAPSIS":"546.099","OBJECT_TYPE":"PAYLOAD","COUNTRY_CODE":"US","CLASSIFICATION_TYPE":"U","CENTER_NAME":"EARTH","LAUNCH_DATE":"2020-11-25","MEAN_ANOMALY":"275.5735","EPHEMERIS_TYPE":"0","TLE_LINE2":"2 47178  53.0548 111.0969 0001565  84.5432 275.5735 15.06410156 92750","ECCENTRICITY":"0.00015650","MEAN_MOTION_DDOT":"0.0000000000000","TIME_SYSTEM":"UTC"},{"OBJECT_ID":"2020-088BK","MEAN_MOTION_DOT":"0.00001425","EPOCH":"2022-07-27T04:12:39.192768","SITE":"AFETR","DECAY_DATE":null,"REV_AT_EPOCH":"9276","MEAN_ELEMENT_THEORY":"SGP4","BSTAR":"0.00011455000000","REF_FRAME":"TEME","ELEMENT_SET_NO":"999","RA_OF_ASC_NODE":"124.1310","SEMIMAJOR_AXIS":"6925.328","NORAD_CAT_ID":"47179","GP_ID":"208936885","MEAN_MOTION":"15.06406619","RCS_SIZE":"LARGE","ARG_OF_PERICENTER":"85.1115","TLE_LINE1":"1 47179U 20088BK  22208.17545362  .00001425  00000-0  11455-3 0  9994","PERIOD":"95.592","ECCENTRICITY":"0.00014860","TLE_LINE2":"2 47179  53.0564 124.1310 0001486  85.1115 275.0043 15.06406619 92768","TIME_SYSTEM":"UTC","MEAN_MOTION_DDOT":"0.0000000000000","MEAN_ANOMALY":"275.0043","EPHEMERIS_TYPE":"0","CENTER_NAME":"EARTH","LAUNCH_DATE":"2020-11-25","OBJECT_TYPE":"PAYLOAD","COUNTRY_CODE":"US","CLASSIFICATION_TYPE":"U","PERIAPSIS":"546.164","OBJECT_NAME":"STARLINK-1913","APOAPSIS":"548.222","INCLINATION":"53.0564","FILE":"3522639"},{"ECCENTRICITY":"0.00014520","TLE_LINE2":"2 47181  53.0551  91.2845 0001452  86.4469 273.6686 15.06411000 93020","MEAN_MOTION_DDOT":"0.0000000000000","TIME_SYSTEM":"UTC","MEAN_ANOMALY":"273.6686","EPHEMERIS_TYPE":"0","CENTER_NAME":"EARTH","LAUNCH_DATE":"2020-11-25","PERIAPSIS":"546.174","COUNTRY_CODE":"US","CLASSIFICATION_TYPE":"U","OBJECT_TYPE":"PAYLOAD","OBJECT_NAME":"STARLINK-1927","APOAPSIS":"548.185","INCLINATION":"53.0551","FILE":"3523323","EPOCH":"2022-07-27T19:29:33.894240","MEAN_MOTION_DOT":"0.00003715","OBJECT_ID":"2020-088BM","SITE":"AFETR","DECAY_DATE":null,"BSTAR":"0.00026807000000","MEAN_ELEMENT_THEORY":"SGP4","REV_AT_EPOCH":"9302","ELEMENT_SET_NO":"999","REF_FRAME":"TEME","SEMIMAJOR_AXIS":"6925.315","RA_OF_ASC_NODE":"91.2845","NORAD_CAT_ID":"47181","GP_ID":"208998332","ARG_OF_PERICENTER":"86.4469","RCS_SIZE":"LARGE","MEAN_MOTION":"15.06411000","TLE_LINE1":"1 47181U 20088BM  22208.81219785  .00003715  00000-0  26807-3 0  9996","PERIOD":"95.591"},{"FILE":"3523185","INCLINATION":"53.0276","APOAPSIS":"339.619","OBJECT_NAME":"STARLINK-1952","PERIAPSIS":"327.822","COUNTRY_CODE":"US","OBJECT_TYPE":"PAYLOAD","CLASSIFICATION_TYPE":"U","LAUNCH_DATE":"2021-01-20","CENTER_NAME":"EARTH","EPHEMERIS_TYPE":"0","MEAN_ANOMALY":"56.9836","MEAN_MOTION_DDOT":"0.0000000000000","TIME_SYSTEM":"UTC","ECCENTRICITY":"0.00087880","TLE_LINE2":"2 47349  53.0276  72.9863 0008788 303.0339  56.9836 15.78842699 86829","PERIOD":"91.206","TLE_LINE1":"1 47349U 21005A   22208.79525285  .00038367  00000-0  21557-3 0  9992","RCS_SIZE":"LARGE","MEAN_MOTION":"15.78842699","ARG_OF_PERICENTER":"303.0339","GP_ID":"208973843","NORAD_CAT_ID":"47349","SEMIMAJOR_AXIS":"6711.856","RA_OF_ASC_NODE":"72.9863","ELEMENT_SET_NO":"999","REF_FRAME":"TEME","MEAN_ELEMENT_THEORY":"SGP4","BSTAR":"0.00021557000000","REV_AT_EPOCH":"8682","DECAY_DATE":null,"SITE":"AFETR","MEAN_MOTION_DOT":"0.00038367","EPOCH":"2022-07-27T19:05:09.846240","OBJECT_ID":"2021-005A"},{"APOAPSIS":"548.337","INCLINATION":"53.0537","FILE":"3523323","PERIAPSIS":"546.150","COUNTRY_CODE":"US","CLASSIFICATION_TYPE":"U","OBJECT_TYPE":"PAYLOAD","OBJECT_NAME":"STARLINK-2011","CENTER_NAME":"EARTH","LAUNCH_DATE":"2021-01-20","ECCENTRICITY":"0.00015790","TLE_LINE2":"2 47350  53.0537 231.4009 0001579  58.6210 301.4934 15.06390293 83954","MEAN_MOTION_DDOT":"0.0000000000000","TIME_SYSTEM":"UTC","MEAN_ANOMALY":"301.4934","EPHEMERIS_TYPE":"0","TLE_LINE1":"1 47350U 21005B   22208.78456548  .00000973  00000-0  84201-4 0  9996","PERIOD":"95.593","RCS_SIZE":"LARGE","MEAN_MOTION":"15.06390293","ARG_OF_PERICENTER":"58.6210","REF_FRAME":"TEME","ELEMENT_SET_NO":"999","SEMIMAJOR_AXIS":"6925.378","RA_OF_ASC_NODE":"231.4009","GP_ID":"208998099","NORAD_CAT_ID":"47350","OBJECT_ID":"2021-005B","MEAN_MOTION_DOT":"0.00000973","EPOCH":"2022-07-27T18:49:46.457472","SITE":"AFETR","DECAY_DATE":null,"MEAN_ELEMENT_THEORY":"SGP4","BSTAR":"0.00008420100000","REV_AT_EPOCH":"8395"},{"BSTAR":"0.00010534000000","MEAN_ELEMENT_THEORY":"SGP4","REV_AT_EPOCH":"8450","DECAY_DATE":null,"SITE":"AFETR","MEAN_MOTION_DOT":"0.00001288","OBJECT_ID":"2021-005C","EPOCH":"2022-07-27T17:55:20.335296","GP_ID":"208997857","NORAD_CAT_ID":"47351","SEMIMAJOR_AXIS":"6925.373","RA_OF_ASC_NODE":"191.5454","ELEMENT_SET_NO":"999","REF_FRAME":"TEME","RCS_SIZE":"LARGE","ARG_OF_PERICENTER":"70.3046","MEAN_MOTION":"15.06391893","PERIOD":"95.593","TLE_LINE1":"1 47351U 21005C   22208.74676314  .00001288  00000-0  10534-3 0  9995","EPHEMERIS_TYPE":"0","MEAN_ANOMALY":"289.8116","MEAN_MOTION_DDOT":"0.0000000000000","TIME_SYSTEM":"UTC","TLE_LINE2":"2 47351  53.0545 191.5454 0001609  70.3046 289.8116 15.06391893 84506","ECCENTRICITY":"0.00016090","LAUNCH_DATE":"2021-01-20","CENTER_NAME":"EARTH","OBJECT_NAME":"STARLINK-2017","PERIAPSIS":"546.124","OBJECT_TYPE":"PAYLOAD","COUNTRY_CODE":"US","CLASSIFICATION_TYPE":"U","FILE":"3523323","INCLINATION":"53.0545","APOAPSIS":"548.353"},{"REV_AT_EPOCH":"8394","MEAN_ELEMENT_THEORY":"SGP4","BSTAR":"0.00012329000000","DECAY_DATE":null,"SITE":"AFETR","EPOCH":"2022-07-27T18:23:15.159552","MEAN_MOTION_DOT":"0.00001555","OBJECT_ID":"2021-005D","GP_ID":"208999101","NORAD_CAT_ID":"47352","RA_OF_ASC_NODE":"231.4867","SEMIMAJOR_AXIS":"6925.388","ELEMENT_SET_NO":"999","REF_FRAME":"TEME","ARG_OF_PERICENTER":"61.7269","RCS_SIZE":"LARGE","MEAN_MOTION":"15.06387287","PERIOD":"95.593","TLE_LINE1":"1 47352U 21005D   22208.76614768  .00001555  00000-0  12329-3 0  9994","EPHEMERIS_TYPE":"0","MEAN_ANOMALY":"298.3869","TIME_SYSTEM":"UTC","MEAN_MOTION_DDOT":"0.0000000000000","ECCENTRICITY":"0.00014780","TLE_LINE2":"2 47352  53.0534 231.4867 0001478  61.7269 298.3869 15.06387287 83941","LAUNCH_DATE":"2021-01-20","CENTER_NAME":"EARTH","OBJECT_NAME":"STARLINK-2034","CLASSIFICATION_TYPE":"U","COUNTRY_CODE":"US","OBJECT_TYPE":"PAYLOAD","PERIAPSIS":"546.229","FILE":"3523323","INCLINATION":"53.0534","APOAPSIS":"548.276"}];
